satname,norad_id,inclination_deg,eccentricity,mean_motion_rev_per_day,perigee_km,apogee_km,l1,l2
STARLINK-1168,45072,53.0542,0.0001389,15.06401041,546.24643695351,548.1702978965823,1 45072U 20006AE  25292.07642609  .00003445  00000+0  25006-3 0  9991,2 45072  53.0542 182.3464 0001389  80.3647 279.7499 15.06401041315396
STARLINK-1172,45074,53.0548,0.0001505,15.06399447,546.170987591102,548.2555180171958,1 45074U 20006AG  25292.08748508  .00001870  00000+0  14443-3 0  9992,2 45074  53.0548 182.2950 0001505  81.9153 278.2006 15.06399447315396
STARLINK-1153,45080,53.0538,0.0001224,15.06400723,546.3616796560291,548.0570044405613,1 45080U 20006AN  25291.99901729  .00003340  00000+0  24302-3 0  9993,2 45080  53.0538 182.6941 0001224  81.7884 278.3243 15.06400723315386
STARLINK-1151,45081,53.0543,0.000133,15.06464087,546.0941022411334,547.9361927123618,1 45081U 20006AP  25291.98426081  .00024857  00000+0  16789-2 0  9991,2 45081  53.0543 182.8340 0001330  99.2373 260.8767 15.06464087315383
STARLINK-1190,45083,53.0428,0.0005451,15.83680606,316.39123070568166,323.6935858966117,1 45083U 20006AR  25292.33336806  .00309422  00000+0  13289-2 0  9994,2 45083  53.0428 138.9857 0005451 156.0807 358.6026 15.83680606  5847
STARLINK-1173,45084,53.0366,0.0002971,16.03589236,262.51474210395827,266.46179003705765,1 45084U 20006AS  25292.02453876  .00759938  29238-3  11797-2 0  9999,2 45084  53.0366 101.6128 0002971 314.9386  45.1404 16.03589236316526
STARLINK-1185,45087,53.0525,0.0001261,15.06416236,546.2885172052729,548.0350775619718,1 45087U 20006AV  25292.33336806 -.00012416  00000+0 -81570-3 0  9993,2 45087  53.0525 161.1907 0001261  88.5448 135.7595 15.06416236  5653
STARLINK-1183,45088,53.0535,0.0001482,15.06403229,546.1753263463761,548.2279967256554,1 45088U 20006AW  25291.91608985  .00004025  00000+0  28890-3 0  9998,2 45088  53.0535 163.0658 0001482  87.0796 273.0362 15.06403229315654
STARLINK-1176,45090,53.0411,0.0005493,15.994985,272.15415884152844,279.46418410550905,1 45090U 20006AY  25292.33336806  .00708264  23735-3  13940-2 0  9997,2 45090  53.0411  98.4074 0005493 329.6313 212.2099 15.99498500  5868
STARLINK-1142,45093,53.0341,0.0002746,15.57189834,393.93439155059696,397.6546347376161,1 45093U 20006BB  25292.28113286  .00186769  00000+0  24710-2 0  9992,2 45093  53.0341  99.3207 0002746 217.0919 142.9903 15.57189834316589
STARLINK-1152,45096,53.0492,0.000922,15.22998375,490.463816198715,503.1412046559435,1 45096U 20006BE  25292.12668273  .00052297  00000+0  21919-2 0  9995,2 45096  53.0492 145.8083 0009220 127.3079 232.8759 15.22998375315916
STARLINK-1184,45098,53.0543,0.0001455,15.06394484,546.2208230604401,548.2361044103873,1 45098U 20006BG  25292.06350967  .00002648  00000+0  19661-3 0  9995,2 45098  53.0543 162.4032 0001455  89.1144 271.0012 15.06394484315677
STARLINK-1193,45100,53.0539,0.0001476,15.06409881,546.1590972846552,548.2034512392183,1 45100U 20006BJ  25291.92714473  .00005623  00000+0  39597-3 0  9995,2 45100  53.0539 163.0135 0001476  91.4375 268.6783 15.06409881315655
STARLINK-1143,45179,53.0541,0.0007509,15.38730336,444.7356176190142,454.98990766254883,1 45179U 20012B   25292.31401681  .00148524  00000+0  37562-2 0  9993,2 45179  53.0541 287.8294 0007509 359.3786   0.7206 15.38730336314000
STARLINK-1202,45183,53.0547,0.000141,15.06413733,546.1930003788757,548.1459368030182,1 45183U 20012F   25292.32152870  .00014438  00000+0  98582-3 0  9998,2 45183  53.0547 321.2468 0001410  82.2205 277.8944 15.06413733313537
STARLINK-1216,45185,53.0549,0.0001401,15.06425291,546.163815276801,548.1042762238203,1 45185U 20012H   25292.31414815  .00005200  00000+0  36748-3 0  9992,2 45185  53.0549 321.2773 0001401  78.2232 281.8914 15.06425291313472
STARLINK-1225,45187,53.0542,8.5e-05,15.06404658,546.6086284619796,547.7859352898977,1 45187U 20012K   25292.26623010  .00011856  00000+0  81339-3 0  9997,2 45187  53.0542 321.4946 0000850 107.3226 252.7856 15.06404658313516
STARLINK-1230,45189,53.055,0.0001433,15.06431856,546.1215371492754,548.1063140645538,1 45189U 20012M   25292.26992245  .00009815  00000+0  67634-3 0  9992,2 45189  53.0550 321.4793 0001433  92.9628 267.1525 15.06431856310745
STARLINK-1234,45190,53.0534,0.0001629,15.26156868,486.1953943596327,488.4321582225484,1 45190U 20012N   25292.33336806  .01675002  00000+0  57815-1 0  9993,2 45190  53.0534 280.5039 0001629  63.6455 175.7120 15.26156868  5809
STARLINK-1269,45197,53.0553,0.0001562,15.06417574,546.0759656514065,548.2394277146504,1 45197U 20012V   25292.28097761  .00003630  00000+0  26234-3 0  9992,2 45197  53.0553 321.4317 0001562  85.3682 274.7485 15.06417574313493
STARLINK-1154,45198,53.0545,0.0001644,15.06407943,546.048690593484,548.3257371950131,1 45198U 20012W   25292.27176634  .00001933  00000+0  14863-3 0  9998,2 45198  53.0545 301.4700 0001644  92.7266 267.3911 15.06407943313749
STARLINK-1199,45201,53.0539,0.0001415,15.06410348,546.1999106569301,548.1597753234973,1 45201U 20012Z   25292.28282487  .00002476  00000+0  18500-3 0  9993,2 45201  53.0539 301.4197 0001415  87.2341 272.8810 15.06410348313805
STARLINK-1209,45206,53.0549,0.0001312,15.22729554,496.70951790806157,498.51371434493285,1 45206U 20012AE  25292.33336806  .01663786  00000+0  64605-1 0  9992,2 45206  53.0549 280.7334 0001312  98.8812   3.9198 15.22729554  5800
STARLINK-1210,45207,53.0257,0.0013142,15.53166302,398.57053805732085,416.4058753506215,1 45207U 20012AF  25292.16240733  .00082437  00000+0  12810-2 0  9996,2 45207  53.0257 246.0796 0013142  16.5290 343.6145 15.53166302314578
STARLINK-1231,45212,53.051,0.0004918,15.11228281,529.0543567954383,535.8516131046354,1 45212U 20012AL  25292.27574917  .00065054  00000+0  38086-2 0  9997,2 45212  53.0510 300.2514 0004918 351.8193   8.2717 15.11228281313774
STARLINK-1271,45217,53.0544,0.0001371,15.06417183,546.2094369514662,548.1083530858796,1 45217U 20012AR  25292.33444919  .00015455  00000+0  10537-2 0  9998,2 45217  53.0544 301.1883 0001371  93.5864 266.5282 15.06417183313816
STARLINK-1191,45222,53.0532,0.00014,15.06410261,546.2105652342952,548.1496540249927,1 45222U 20012AW  25292.27728557  .00002887  00000+0  21254-3 0  9994,2 45222  53.0532 281.4429 0001400  79.1498 280.9649 15.06410261314088
STARLINK-1212,45223,53.0536,0.0001484,15.06419414,546.1243445672962,548.1797703595521,1 45223U 20012AX  25292.29579958  .00005619  00000+0  39560-3 0  9991,2 45223  53.0536 282.0155 0001484  81.1342 278.9815 15.06419414314080
STARLINK-1215,45225,53.0545,0.0001453,15.06413381,546.1643002174296,548.176794590705,1 45225U 20012AZ  25292.25148620  .00001682  00000+0  13177-3 0  9999,2 45225  53.0545 281.5571 0001453  93.8667 266.2488 15.06413381314032
STARLINK-1217,45226,53.0267,0.0005281,16.38383556,166.647878155959,173.56413241814334,1 45226U 20012BA  25292.96438882  .07587266  12252-4  66875-3 0  9994,2 45226  53.0267 209.3007 0005281 218.7561 141.3106 16.38383556315060
STARLINK-1221,45227,53.0673,0.0001617,15.36245691,456.1176729406907,458.3282283487297,1 45227U 20012BB  25292.09103801  .00028033  00000+0  78989-3 0  9996,2 45227  53.0673 217.7198 0001617 306.4989  53.5864 15.36245691314905
STARLINK-1222,45228,53.0549,0.0001514,15.0641184,546.1267780035078,548.2237625589487,1 45228U 20012BC  25292.28466713  .00001743  00000+0  13585-3 0  9992,2 45228  53.0549 281.4097 0001514  83.5269 276.5892 15.06411840313976
STARLINK-1226,45229,53.0551,0.0001437,15.06395717,546.2295102734151,548.2198592216118,1 45229U 20012BD  25292.24783319  .00000462  00000+0  49884-4 0  9992,2 45229  53.0551 281.5738 0001437  92.1172 267.9982 15.06395717313974
STARLINK-1227,45230,53.055,0.0001458,15.06413024,546.1619315417302,548.1813515416043,1 45230U 20012BE  25292.24412594  .00002264  00000+0  17078-3 0  9999,2 45230  53.0550 281.5904 0001458  89.9679 270.1478 15.06413024314091
STARLINK-1246,45235,53.0547,0.0001166,15.06407128,546.3822186364541,547.9972048256286,1 45235U 20012BK  25292.25886121  .00001779  00000+0  13827-3 0  9994,2 45235  53.0547 321.5252 0001166  88.4799 271.6324 15.06407128313549
STARLINK-1270,45237,53.0553,0.0001489,15.06407217,546.158257854263,548.2206200677847,1 45237U 20012BM  25292.26254585  .00001639  00000+0  12887-3 0  9990,2 45237  53.0553 281.5099 0001489  90.3405 269.7755 15.06407217314081
STARLINK-1279,45360,53.0546,0.0001043,15.23263027,495.2892120584602,496.7231583268913,1 45360U 20019A   25292.33336806  .01143303  00000+0  43890-1 0  9991,2 45360  53.0546  50.7213 0001043 101.1959  29.5008 15.23263027  5803
STARLINK-1301,45361,53.0555,0.0001274,15.24873449,490.29031921266414,492.04061748159893,1 45361U 20019B   25292.33336806  .01169966  00000+0  42739-1 0  9996,2 45361  53.0555  60.6238 0001274  89.3276 156.6429 15.24873449  5698
STARLINK-1306,45362,53.048,0.0005818,15.65222818,368.6704365037922,376.5255917662389,1 45362U 20019C   25292.33336806  .00202667  00000+0  19628-2 0  9994,2 45362  53.0480  53.8015 0005818 227.2180  71.6027 15.65222818  5949
STARLINK-1262,45366,53.0544,0.00013,15.06422925,546.2410108275208,548.0415831847413,1 45366U 20019G   25291.84233496  .00009079  00000+0  62721-3 0  9999,2 45366  53.0544  83.3902 0001300  94.1129 266.0009 15.06422925308350
STARLINK-1273,45367,53.0539,0.0001216,15.0639562,546.382858022952,548.0671060569839,1 45367U 20019H   25292.12986472  .00002499  00000+0  18661-3 0  9994,2 45367  53.0539  82.1035 0001216  84.9031 275.2097 15.06395620308398
STARLINK-1276,45368,53.0531,0.0001282,15.06401776,546.3182857721049,548.0939437467287,1 45368U 20019J   25291.83498763  .00003649  00000+0  26373-3 0  9990,2 45368  53.0531  83.4284 0001282  93.0286 267.0849 15.06401776308357
STARLINK-1277,45369,53.054,0.0001334,15.06409219,546.2594654467111,548.1071409035967,1 45369U 20019K   25292.15940645  .00002222  00000+0  16794-3 0  9990,2 45369  53.0540  82.5992 0001334  87.0768 273.0374 15.06409219308394
